NEMO-HD                 
1 46277U 20061F   26068.94426947  .00012416  00000+0  28818-3 0  9995
2 46277  97.2041 131.9888 0002366  77.9240 282.2273 15.42511539306679
GHOST-3                 
1 56958U 23084AC  26068.88483156  .00022139  00000+0  48344-3 0  9997
2 56958  97.6062 212.4847 0006456 293.3516  66.7052 15.44198134152670
