[{"OBJECT_NAME":"NEMO-HD","OBJECT_ID":"2020-061F","EPOCH":"2026-03-09T22:39:44.882208","MEAN_MOTION":15.42511539,"ECCENTRICITY":0.00023666,"INCLINATION":97.2041,"RA_OF_ASC_NODE":131.9888,"ARG_OF_PERICENTER":77.924,"MEAN_ANOMALY":282.2273,"EPHEMERIS_TYPE":0,"CLASSIFICATION_TYPE":"U","NORAD_CAT_ID":46277,"ELEMENT_SET_NO":999,"REV_AT_EPOCH":30667,"BSTAR":0.00028818248,"MEAN_MOTION_DOT":0.00012416,"MEAN_MOTION_DDOT":0},{"OBJECT_NAME":"GHOST-3","OBJECT_ID":"2023-084AC","EPOCH":"2026-03-09T21:14:09.446784","MEAN_MOTION":15.44198134,"ECCENTRICITY":0.00064568,"INCLINATION":97.6062,"RA_OF_ASC_NODE":212.4847,"ARG_OF_PERICENTER":293.3516,"MEAN_ANOMALY":66.7052,"EPHEMERIS_TYPE":0,"CLASSIFICATION_TYPE":"U","NORAD_CAT_ID":56958,"ELEMENT_SET_NO":999,"REV_AT_EPOCH":15267,"BSTAR":0.00048344236,"MEAN_MOTION_DOT":0.00022139,"MEAN_MOTION_DDOT":0}]
